[{"OBJECT_NAME":"PACE","OBJECT_ID":"2024-025A","EPOCH":"2026-03-09T17:12:21.766176","MEAN_MOTION":14.65475036,"ECCENTRICITY":0.00016743,"INCLINATION":98.09,"RA_OF_ASC_NODE":1.5412,"ARG_OF_PERICENTER":171.2406,"MEAN_ANOMALY":188.8827,"EPHEMERIS_TYPE":0,"CLASSIFICATION_TYPE":"U","NORAD_CAT_ID":58928,"ELEMENT_SET_NO":999,"REV_AT_EPOCH":11136,"BSTAR":0.00014666329,"MEAN_MOTION_DOT":7.47e-6,"MEAN_MOTION_DDOT":0},{"OBJECT_NAME":"COSMOS 2251 DEB","OBJECT_ID":"1993-036BPL","EPOCH":"2026-03-01T03:10:28.610976","MEAN_MOTION":14.58781491,"ECCENTRICITY":0.0037959,"INCLINATION":74.0441,"RA_OF_ASC_NODE":347.9439,"ARG_OF_PERICENTER":47.2201,"MEAN_ANOMALY":313.2146,"EPHEMERIS_TYPE":0,"CLASSIFICATION_TYPE":"U","NORAD_CAT_ID":37961,"ELEMENT_SET_NO":999,"REV_AT_EPOCH":81208,"BSTAR":0.0010829289,"MEAN_MOTION_DOT":5.085e-5,"MEAN_MOTION_DDOT":0}]
